MUOS-1                  
1 38093U 12009A   22255.66062507 -.00000140  00000+0  00000+0 0  9997
2 38093   3.0335  34.2549 0051995   2.8634  92.3586  1.00270826 38671
MUOS-2                  
1 39206U 13036A   22255.86031396  .00000050  00000+0  00000+0 0  9998
2 39206   2.7663  25.9113 0056326 177.9241 280.6973  1.00269969 33429
MUOS-3                  
1 40374U 15002A   22255.82098657 -.00000143  00000+0  00000+0 0  9994
2 40374   2.5876  15.9452 0058913 178.1699  77.7502  1.00271221 27813
MUOS-4                  
1 40887U 15044A   22255.84198375 -.00000108  00000+0  00000+0 0  9990
2 40887   2.5654  11.0976 0050262 357.5773   1.2824  1.00271644 25781